NORAD_CAT_ID,OBJECT_NAME,OBJECT_TYPE,EPOCH,MEAN_MOTION,ECCENTRICITY,INCLINATION,RA_OF_ASC_NODE,ARG_OF_PERICENTER,MEAN_ANOMALY,BSTAR,MEAN_MOTION_DOT,MEAN_MOTION_DDOT,TLE_LINE0,TLE_LINE1,TLE_LINE2,SEMIMAJOR_AXIS,PERIOD,APOGEE,PERIGEE,DECAYED
51957.0,STARLINK-3694,PAYLOAD,2023-02-25 23:56:34,15.08860567,0.0001243,53.2159,321.7449,101.6815,258.4317,0.0015404,0.00024326,0.0,0 STARLINK-3694,1 51957U 22025B   23056.99761985  .00024326  00000-0  15404-2 0  9991,2 51957  53.2159 321.7449 0001243 101.6815 258.4317 15.08860567 55080,6917.818,95.436,540.542,538.823,0.0
51957.0,STARLINK-3694,PAYLOAD,2023-02-26 17:25:47,15.08875952,0.0001348,53.2159,318.4736,105.333,254.7811,0.0011444,0.0001799,0.0,0 STARLINK-3694,1 51957U 22025B   23057.72624842  .00017990  00000-0  11444-2 0  9992,2 51957  53.2159 318.4736 0001348 105.3330 254.7811 15.08875952 55195,6917.771,95.435,540.568,538.703,0.0
51957.0,STARLINK-3694,PAYLOAD,2023-02-26 23:47:19,15.08883559,0.0001211,53.2162,317.2841,88.3502,271.7629,0.0010645,0.00016714,0.0,0 STARLINK-3694,1 51957U 22025B   23057.99120244  .00016714  00000-0  10645-2 0  9993,2 51957  53.2162 317.2841 0001211  88.3502 271.7629 15.08883559 54123,6917.747,95.435,540.45,538.775,0.0
51957.0,STARLINK-3694,PAYLOAD,2023-02-27 17:16:33,15.0890439,0.0001416,53.2156,314.0116,89.2873,270.8281,0.0019134,0.00030349,0.0,0 STARLINK-3694,1 51957U 22025B   23058.71982771  .00030349  00000-0  19134-2 0  9997,2 51957  53.2156 314.0116 0001416  89.2873 270.8281 15.08904390 55340,6917.684,95.433,540.528,538.569,0.0
51957.0,STARLINK-3694,PAYLOAD,2023-02-27 23:38:05,15.08865062,4.59e-05,53.216,312.8229,92.1389,267.9656,0.00031383,4.714e-05,0.0,0 STARLINK-3694,1 51957U 22025B   23058.98478595  .00004714  00000-0  31383-3 0  9998,2 51957  53.2160 312.8229 0000459  92.1389 267.9656 15.08865062 55386,6917.804,95.436,539.986,539.351,0.0
51957.0,STARLINK-3694,PAYLOAD,2023-02-28 15:31:58,15.08812102,0.0001497,53.216,309.8489,86.5391,273.5772,-0.00021006,-3.627e-05,0.0,0 STARLINK-3694,1 51957U 22025B   23059.64720496 -.00003627  00000-0 -21006-3 0  9997,2 51957  53.2160 309.8489 0001497  86.5391 273.5772 15.08812102 55483,6917.966,95.439,540.866,538.795,0.0
51957.0,STARLINK-3694,PAYLOAD,2023-02-28 21:53:31,15.08797843,9.48e-05,53.2158,308.658,110.5189,249.5905,-5.3608e-05,-1.14e-05,0.0,0 STARLINK-3694,1 51957U 22025B   23059.91217424 -.00001140  00000-0 -53608-4 0  9991,2 51957  53.2158 308.6580 0000948 110.5189 249.5905 15.08797843 54419,6918.009,95.44,540.53,539.218,0.0
51957.0,STARLINK-3694,PAYLOAD,2023-02-28 23:28:55,15.08803067,8.3e-05,53.2162,308.362,84.6106,275.4981,-0.00036856,-6.142e-05,0.0,0 STARLINK-3694,1 51957U 22025B   23059.97841502 -.00006142  00000-0 -36856-3 0  9999,2 51957  53.2162 308.3620 0000830  84.6106 275.4981 15.08803067 55538,6917.993,95.44,540.432,539.284,0.0
51957.0,STARLINK-3694,PAYLOAD,2023-03-01 07:25:51,15.08815584,8.91e-05,53.2169,306.8757,90.7347,269.3747,0.00049552,7.602e-05,0.0,0 STARLINK-3694,1 51957U 22025B   23060.30962154  .00007602  00000-0  49552-3 0  9992,2 51957  53.2169 306.8757 0000891  90.7347 269.3747 15.08815584 55585,6917.955,95.439,540.436,539.204,0.0
51957.0,STARLINK-3694,PAYLOAD,2023-03-01 21:44:19,15.08846086,6.39e-05,53.2162,304.1992,80.013,280.0934,0.0013315,0.0002097,0.0,0 STARLINK-3694,1 51957U 22025B   23060.90578414  .00020970  00000-0  13315-2 0  9990,2 51957  53.2162 304.1992 0000639  80.0130 280.0934 15.08846086 54568,6917.862,95.437,540.169,539.285,0.0
51957.0,STARLINK-3694,PAYLOAD,2023-03-02 00:55:05,15.08865575,6.33e-05,53.2162,303.6052,87.7527,272.3537,0.0018503,0.00029303,0.0,0 STARLINK-3694,1 51957U 22025B   23061.03826137  .00029303  00000-0  18503-2 0  9996,2 51957  53.2162 303.6052 0000633  87.7527 272.3537 15.08865575 55699,6917.802,95.436,540.105,539.229,0.0
51957.0,STARLINK-3694,PAYLOAD,2023-03-02 19:59:43,15.08867317,4.54e-05,53.2156,300.0373,75.456,284.6482,0.0016672,0.00026365,0.0,0 STARLINK-3694,1 51957U 22025B   23061.83313715  .00026365  00000-0  16672-2 0  9997,2 51957  53.2156 300.0373 0000454  75.4560 284.6482 15.08867317 54703,6917.797,95.436,539.976,539.348,0.0
51957.0,STARLINK-3694,PAYLOAD,2023-03-03 02:21:15,15.08881927,6.29e-05,53.2156,298.8476,137.7846,222.3195,0.0019202,0.00030439,0.0,0 STARLINK-3694,1 51957U 22025B   23062.09809062  .00030439  00000-0  19202-2 0  9990,2 51957  53.2156 298.8476 0000629 137.7846 222.3195 15.08881927 55854,6917.752,95.435,540.052,539.182,0.0
51957.0,STARLINK-3694,PAYLOAD,2023-03-03 15:04:20,15.08872992,9.84e-05,53.2154,296.4688,104.7886,255.3215,0.0025504,0.00040572,0.0,0 STARLINK-3694,1 51957U 22025B   23062.62800958  .00040572  00000-0  25504-2 0  9995,2 51957  53.2154 296.4688 0000984 104.7886 255.3215 15.08872992 55933,6917.78,95.435,540.325,538.964,0.0
51957.0,STARLINK-3694,PAYLOAD,2023-03-03 21:25:52,15.08830314,0.0002761,53.2152,295.2799,175.0163,185.0857,-0.00062777,-0.00010264,0.0,0 STARLINK-3694,1 51957U 22025B   23062.89297334 -.00010264  00000-0 -62777-3 0  9993,2 51957  53.2152 295.2799 0002761 175.0163 185.0857 15.08830314 55972,6917.91,95.438,541.685,537.865,0.0
51957.0,STARLINK-3694,PAYLOAD,2023-03-04 05:22:53,15.08582913,0.0001291,53.2151,293.7932,156.1773,203.9279,-0.009118,-0.00141562,0.0,0 STARLINK-3694,1 51957U 22025B   23063.22423604 -.00141562  00000-0 -91180-2 0  9997,2 51957  53.2151 293.7932 0001291 156.1773 203.9279 15.08582913 56021,6918.666,95.454,541.425,539.638,0.0
51957.0,STARLINK-3694,PAYLOAD,2023-03-04 21:17:13,15.08120387,0.0002187,53.215,290.8224,127.515,232.6041,-0.0029021,-0.00045291,0.0,0 STARLINK-3694,1 51957U 22025B   23063.88696674 -.00045291  00000-0 -29021-2 0  9995,2 51957  53.2150 290.8224 0002187 127.5150 232.6041 15.08120387 56128,6920.081,95.483,543.459,540.432,0.0
51957.0,STARLINK-3694,PAYLOAD,2023-03-05 08:00:01,15.07321938,0.000124,53.2142,288.8215,84.8719,179.1304,-0.033443,-0.00482575,0.0,0 STARLINK-3694,1 51957U 22025B   23064.33335648 -.00482575  00000-0 -33443-1 0  9999,2 51957  53.2142 288.8215 0001240  84.8719 179.1304 15.07321938 56199,6922.524,95.534,545.248,543.531,0.0
51957.0,STARLINK-3694,PAYLOAD,2023-03-05 14:00:01,15.07076148,0.000133,53.2142,287.7015,89.7726,91.3746,-0.032302,-0.00464034,0.0,0 STARLINK-3694,1 51957U 22025B   23064.58334491 -.00464034  00000-0 -32302-1 0  9994,2 51957  53.2142 287.7015 0001330  89.7726  91.3746 15.07076148  1305,6923.277,95.549,546.063,544.221,0.0
51957.0,STARLINK-3694,PAYLOAD,2023-03-05 22:00:00,15.06730516,0.0001334,53.2141,286.2113,78.6097,111.8232,-0.031207,-0.00441187,0.0,0 STARLINK-3694,1 51957U 22025B   23064.91667824 -.00441187  00000-0 -31207-1 0  9997,2 51957  53.2141 286.2113 0001334  78.6097 111.8232 15.06730516  1302,6924.336,95.571,547.124,545.277,0.0
51957.0,STARLINK-3694,PAYLOAD,2023-03-06 08:00:01,15.06338961,0.0001194,53.2143,284.3461,83.8347,207.6388,-0.033538,-0.00471785,0.0,0 STARLINK-3694,1 51957U 22025B   23065.33334491 -.00471785  00000-0 -33538-1 0  9991,2 51957  53.2143 284.3461 0001194  83.8347 207.6388 15.06338961 56347,6925.536,95.596,548.228,546.574,0.0
51957.0,STARLINK-3694,PAYLOAD,2023-03-06 22:00:00,15.05753192,0.0001358,53.2142,281.7397,77.8799,138.0312,-0.031769,-0.00437604,0.0,0 STARLINK-3694,1 51957U 22025B   23065.91667824 -.00437604  00000-0 -31769-1 0  9990,2 51957  53.2142 281.7397 0001358  77.8799 138.0312 15.05753192  1307,6927.332,95.633,550.137,548.256,0.0
51957.0,STARLINK-3694,PAYLOAD,2023-03-07 14:00:01,15.05093813,0.0001289,53.2143,278.7607,89.5939,141.341,-0.027959,-0.00381346,0.0,0 STARLINK-3694,1 51957U 22025B   23066.58334491 -.00381346  00000-0 -27959-1 0  9992,2 51957  53.2143 278.7607 0001289  89.5939 141.3410 15.05093813 56535,6929.355,95.675,552.113,550.327,0.0
51957.0,STARLINK-3694,PAYLOAD,2023-03-07 22:00:00,15.04769222,0.0001353,53.2142,277.2749,77.8879,159.9822,8.9893e-05,1.005e-05,0.0,0 STARLINK-3694,1 51957U 22025B   23066.91667824  .00001005  00000-0  89893-4 0  9995,2 51957  53.2142 277.2749 0001353  77.8879 159.9822 15.04769222 56580,6930.351,95.696,553.154,551.278,0.0
51957.0,STARLINK-3694,PAYLOAD,2023-03-08 22:00:00,15.0478052,0.0001159,53.2139,272.8135,85.8192,172.1945,-0.0018615,-0.00026719,0.0,0 STARLINK-3694,1 51957U 22025B   23067.91667824 -.00026719  00000-0 -18615-2 0  9999,2 51957  53.2139 272.8135 0001159  85.8192 172.1945 15.04780520  1304,6930.316,95.695,552.985,551.378,0.0
51957.0,STARLINK-3694,PAYLOAD,2023-03-09 02:00:01,15.04757777,0.0001026,53.2135,272.0697,85.4051,355.9667,0.0015009,0.00021176,0.0,0 STARLINK-3694,1 51957U 22025B   23068.08334491  .00021176  00000-0  15009-2 0  9993,2 51957  53.2135 272.0697 0001026  85.4051 355.9667 15.04757777 56768,6930.386,95.696,552.962,551.54,0.0
51957.0,STARLINK-3694,PAYLOAD,2023-03-10 00:00:00,15.04738255,0.0001039,53.2135,267.9802,67.3044,302.5674,0.0019486,0.00027585,0.0,0 STARLINK-3694,1 51957U 22025B   23069.00001157  .00027585  00000-0  19486-2 0  9999,2 51957  53.2135 267.9802 0001039  67.3044 302.5674 15.04738255  1300,6930.446,95.698,553.031,551.591,0.0
51957.0,STARLINK-3694,PAYLOAD,2023-03-10 06:00:00,15.04757161,0.0001005,53.2136,266.8634,68.7493,216.1315,6.357e-06,-1.86e-06,0.0,0 STARLINK-3694,1 51957U 22025B   23069.25001157 -.00000186  00000-0  63570-5 0  9991,2 51957  53.2136 266.8634 0001005  68.7493 216.1315 15.04757161 56936,6930.388,95.697,552.95,551.557,0.0
51957.0,STARLINK-3694,PAYLOAD,2023-03-10 22:00:00,15.04767054,0.0001105,53.2136,263.8905,64.7937,233.4889,0.00056593,7.799e-05,0.0,0 STARLINK-3694,1 51957U 22025B   23069.91667824  .00007799  00000-0  56593-3 0  9994,2 51957  53.2136 263.8905 0001105  64.7937 233.4889 15.04767054  1305,6930.358,95.696,552.989,551.457,0.0
51957.0,STARLINK-3694,PAYLOAD,2023-03-11 00:00:00,15.04751515,0.0001055,53.2135,263.5187,63.4113,326.5528,0.0030182,0.00042989,0.0,0 STARLINK-3694,1 51957U 22025B   23070.00001157  .00042989  00000-0  30182-2 0  9992,2 51957  53.2135 263.5187 0001055  63.4113 326.5528 15.04751515 57040,6930.406,95.697,553.002,551.539,0.0
